$$SOE
2460147.500000000, A.D. 2023-Jul-22 00:00:00.0000, 1.313211404756791E+08, -4.990978508014874E+08, 2.263377176386476E+07,
2460154.500000000, A.D. 2023-Jul-29 00:00:00.0000, 1.404406817095601E+08, -4.961664602188396E+08, 2.332291363738480E+07,
2460161.500000000, A.D. 2023-Aug-05 00:00:00.0000, 1.495106020149610E+08, -4.930599377724791E+08, 2.400382367844030E+07,
2460168.500000000, A.D. 2023-Aug-12 00:00:00.0000, 1.585275753580350E+08, -4.897789780178187E+08, 2.467624201669294E+07,
2460175.500000000, A.D. 2023-Aug-19 00:00:00.0000, 1.674882783643532E+08, -4.863243381127421E+08, 2.533991040626791E+07,
2460182.500000000, A.D. 2023-Aug-26 00:00:00.0000, 1.763893913956502E+08, -4.826968380791507E+08, 2.599457232931843E+07,
2460189.500000000, A.D. 2023-Sep-02 00:00:00.0000, 1.852275996259921E+08, -4.788973611215774E+08, 2.663997309627923E+07,
2460196.500000000, A.D. 2023-Sep-09 00:00:00.0000, 1.939995941537475E+08, -4.749268540437119E+08, 2.727585993616641E+07,
2460203.500000000, A.D. 2023-Sep-16 00:00:00.0000, 2.027020733176323E+08, -4.707863278201826E+08, 2.790198205682269E+07,
2460210.500000000, A.D. 2023-Sep-23 00:00:00.0000, 2.113317446331978E+08, -4.664768580362141E+08, 2.851809066049591E+07,
2460217.500000000, A.D. 2023-Sep-30 00:00:00.0000, 2.198853270099534E+08, -4.619995840039620E+08, 2.912393904340461E+07,
2460224.500000000, A.D. 2023-Oct-07 00:00:00.0000, 2.283595508946593E+08, -4.573557070973259E+08, 2.971928295092991E+07,
2460231.500000000, A.D. 2023-Oct-14 00:00:00.0000, 2.367511573800272E+08, -4.525464916163324E+08, 3.030388082222944E+07,
2460238.500000000, A.D. 2023-Oct-21 00:00:00.0000, 2.450568995076050E+08, -4.475732665765272E+08, 3.087749375912681E+07,
2460245.500000000, A.D. 2023-Oct-28 00:00:00.0000, 2.532735443408452E+08, -4.424374261624296E+08, 3.143988553486136E+07,
2460252.500000000, A.D. 2023-Nov-04 00:00:00.0000, 2.613978745582685E+08, -4.371404296147143E+08, 3.199082269467580E+07,
2460259.500000000, A.D. 2023-Nov-11 00:00:00.0000, 2.694266897440320E+08, -4.316838011500365E+08, 3.253007468317150E+07,
2460266.500000000, A.D. 2023-Nov-18 00:00:00.0000, 2.773568075950679E+08, -4.260691299767762E+08, 3.305741397325410E+07,
2460273.500000000, A.D. 2023-Nov-25 00:00:00.0000, 2.851850651171680E+08, -4.202980703830676E+08, 3.357261619199662E+07,
2460280.500000000, A.D. 2023-Dec-02 00:00:00.0000, 2.929083198375942E+08, -4.143723419070687E+08, 3.407546023997785E+07,
2460287.500000000, A.D. 2023-Dec-09 00:00:00.0000, 3.005234511114909E+08, -4.082937296468946E+08, 3.456572839208671E+07,
2460294.500000000, A.D. 2023-Dec-16 00:00:00.0000, 3.080273618094530E+08, -4.020640846962009E+08, 3.504320635436639E+07,
2460301.500000000, A.D. 2023-Dec-23 00:00:00.0000, 3.154169807348353E+08, -3.956853240171306E+08, 3.550768330111921E+07,
2460308.500000000, A.D. 2023-Dec-30 00:00:00.0000, 3.226892644303685E+08, -3.891594287011629E+08, 3.595895210096960E+07,
2460315.500000000, A.D. 2024-Jan-06 00:00:00.0000, 3.298411966004320E+08, -3.824884429778571E+08, 3.639680970128304E+07,
2460322.500000000, A.D. 2024-Jan-13 00:00:00.0000, 3.368697883203970E+08, -3.756744757764555E+08, 3.682105723172440E+07,
2460329.500000000, A.D. 2024-Jan-20 00:00:00.0000, 3.437720802562029E+08, -3.687197017541108E+08, 3.723149996639563E+07,
2460336.500000000, A.D. 2024-Jan-27 00:00:00.0000, 3.505451448652237E+08, -3.616263611377240E+08, 3.762794738369882E+07,
2460343.500000000, A.D. 2024-Feb-03 00:00:00.0000, 3.571860881494909E+08, -3.543967593272312E+08, 3.801021328544578E+07,
2460350.500000000, A.D. 2024-Feb-10 00:00:00.0000, 3.636920512379304E+08, -3.470332665505499E+08, 3.837811592572699E+07,
2460357.500000000, A.D. 2024-Feb-17 00:00:00.0000, 3.700602119355820E+08, -3.395383175613695E+08, 3.873147813724677E+07,
2460364.500000000, A.D. 2024-Feb-24 00:00:00.0000, 3.762877862749009E+08, -3.319144113642118E+08, 3.907012745285362E+07,
2460371.500000000, A.D. 2024-Mar-02 00:00:00.0000, 3.823720300973803E+08, -3.241641109985022E+08, 3.939389621672489E+07,
2460378.500000000, A.D. 2024-Mar-09 00:00:00.0000, 3.883102408029118E+08, -3.162900434435114E+08, 3.970262166709131E+07,
2460385.500000000, A.D. 2024-Mar-16 00:00:00.0000, 3.940997596608912E+08, -3.082948994457251E+08, 3.999614597015794E+07,
2460392.500000000, A.D. 2024-Mar-23 00:00:00.0000, 3.997379745785091E+08, -3.001814321588764E+08, 4.027431630531639E+07,
2460399.500000000, A.D. 2024-Mar-30 00:00:00.0000, 4.052223210835378E+08, -2.919524546233265E+08, 4.053698520497178E+07,
2460406.500000000, A.D. 2024-Apr-06 00:00:00.0000, 4.105502817746948E+08, -2.836108394512928E+08, 4.078401084979700E+07,
2460413.500000000, A.D. 2024-Apr-13 00:00:00.0000, 4.157193877880856E+08, -2.751595198787686E+08, 4.101525706137908E+07,
2460420.500000000, A.D. 2024-Apr-20 00:00:00.0000, 4.207272213268265E+08, -2.666014895052597E+08, 4.123059329809205E+07,
2460427.500000000, A.D. 2024-Apr-27 00:00:00.0000, 4.255714177368469E+08, -2.579398012818496E+08, 4.142989474759247E+07,
2460434.500000000, A.D. 2024-May-04 00:00:00.0000, 4.302496672164911E+08, -2.491775664508134E+08, 4.161304245062754E+07,
2460441.500000000, A.D. 2024-May-11 00:00:00.0000, 4.347597163973829E+08, -2.403179535385905E+08, 4.177992342619698E+07,
2460448.500000000, A.D. 2024-May-18 00:00:00.0000, 4.390993698770947E+08, -2.313641873803819E+08, 4.193043079246948E+07,
2460455.500000000, A.D. 2024-May-25 00:00:00.0000, 4.432664917264607E+08, -2.223195481831545E+08, 4.206446388067761E+07,
2460462.500000000, A.D. 2024-Jun-01 00:00:00.0000, 4.472590070290987E+08, -2.131873706838972E+08, 4.218192833178255E+07,
2460469.500000000, A.D. 2024-Jun-08 00:00:00.0000, 4.510749036968495E+08, -2.039710434250628E+08, 4.228273615129760E+07,
2460476.500000000, A.D. 2024-Jun-15 00:00:00.0000, 4.547122349583464E+08, -1.946740076005601E+08, 4.236680573009578E+07,
2460483.500000000, A.D. 2024-Jun-22 00:00:00.0000, 4.581691215144819E+08, -1.852997542960981E+08, 4.243406201973153E+07,
2460490.500000000, A.D. 2024-Jun-29 00:00:00.0000, 4.614437512382265E+08, -1.758518219451391E+08, 4.248443690846249E+07,
2460497.500000000, A.D. 2024-Jul-06 00:00:00.0000, 4.645343790610420E+08, -1.663337964717809E+08, 4.251786935329366E+07,
2460504.500000000, A.D. 2024-Jul-13 00:00:00.0000, 4.674393289921671E+08, -1.567493112955296E+08, 4.253430531975567E+07,
2460511.500000000, A.D. 2024-Jul-20 00:00:00.0000, 4.701569962833140E+08, -1.471020460486842E+08, 4.253369780536876E+07,
2460518.500000000, A.D. 2024-Jul-27 00:00:00.0000, 4.726858490811847E+08, -1.373957249658345E+08, 4.251600692849705E+07,
2460525.500000000, A.D. 2024-Aug-03 00:00:00.0000, 4.750244298388914E+08, -1.276341153205958E+08, 4.248120002674000E+07,
2460532.500000000, A.D. 2024-Aug-10 00:00:00.0000, 4.771713566501048E+08, -1.178210259141728E+08, 4.242925174901919E+07,
2460539.500000000, A.D. 2024-Aug-17 00:00:00.0000, 4.791253245512845E+08, -1.079603055942091E+08, 4.236014413847482E+07,
2460546.500000000, A.D. 2024-Aug-24 00:00:00.0000, 4.808851068177940E+08, -9.805584182652538E+07, 4.227386670142541E+07,
2460553.500000000, A.D. 2024-Aug-31 00:00:00.0000, 4.824495563671258E+08, -8.811155938183650E+07, 4.217041644628057E+07,
2460560.500000000, A.D. 2024-Sep-07 00:00:00.0000, 4.838176076315708E+08, -7.813141901156868E+07, 4.204979786853448E+07,
2460567.500000000, A.D. 2024-Sep-14 00:00:00.0000, 4.849882789822754E+08, -6.811941511658338E+07, 4.191202295475534E+07,
2460574.500000000, A.D. 2024-Sep-21 00:00:00.0000, 4.859606736742935E+08, -5.807957199591333E+07, 4.175711142519924E+07,
2460581.500000000, A.D. 2024-Sep-28 00:00:00.0000, 4.867339788241072E+08, -4.801594190446694E+07, 4.158509099589738E+07,
2460588.500000000, A.D. 2024-Oct-05 00:00:00.0000, 4.873074660862383E+08, -3.793260491924800E+07, 4.139599732318619E+07,
2460595.500000000, A.D. 2024-Oct-12 00:00:00.0000, 4.876804936653622E+08, -2.783366763402312E+07, 4.118987390686014E+07,
2460602.500000000, A.D. 2024-Oct-19 00:00:00.0000, 4.878525079115074E+08, -1.772326095355811E+07, 4.096677209037279E+07,
2460609.500000000, A.D. 2024-Oct-26 00:00:00.0000, 4.878230444649134E+08, -7.605537789761778E+06, 4.072675109563012E+07,
2460616.500000000, A.D. 2024-Nov-02 00:00:00.0000, 4.875917292067992E+08, 2.515329190601492E+06, 4.046987805671313E+07,
2460623.500000000, A.D. 2024-Nov-09 00:00:00.0000, 4.871582791114913E+08, 1.263514978583058E+07, 4.019622804542537E+07,
2460630.500000000, A.D. 2024-Nov-16 00:00:00.0000, 4.865225030245930E+08, 2.274971844533071E+07, 3.990588408636427E+07,
2460637.500000000, A.D. 2024-Nov-23 00:00:00.0000, 4.856843024127040E+08, 3.285481636972261E+07, 3.959893715312964E+07,
2460644.500000000, A.D. 2024-Nov-30 00:00:00.0000, 4.846436722909325E+08, 4.294621347969675E+07, 3.927548612289526E+07,
2460651.500000000, A.D. 2024-Dec-07 00:00:00.0000, 4.834007027441336E+08, 5.301967067150460E+07, 3.893563768474738E+07,
2460658.500000000, A.D. 2024-Dec-14 00:00:00.0000, 4.819555803489370E+08, 6.307094358179140E+07, 3.857950636448854E+07,
2460665.500000000, A.D. 2024-Dec-21 00:00:00.0000, 4.803085871762213E+08, 7.309578662092219E+07, 3.820721477736156E+07,
2460672.500000000, A.D. 2024-Dec-28 00:00:00.0000, 4.784600993464882E+08, 8.308995430586298E+07, 3.781889368564950E+07,
2460679.500000000, A.D. 2025-Jan-04 00:00:00.0000, 4.764105877338584E+08, 9.304920226659714E+07, 3.741468181720220E+07,
2460686.500000000, A.D. 2025-Jan-11 00:00:00.0000, 4.741606189963302E+08, 1.029692895842137E+08, 3.699472574791464E+07,
2460693.500000000, A.D. 2025-Jan-18 00:00:00.0000, 4.717108560153004E+08, 1.128459815395600E+08, 3.655917985766996E+07,
2460700.500000000, A.D. 2025-Jan-25 00:00:00.0000, 4.690620579875233E+08, 1.226750522949566E+08, 3.610820629898430E+07,
2460707.500000000, A.D. 2025-Feb-01 00:00:00.0000, 4.662150803581586E+08, 1.324522874757665E+08, 3.564197495872004E+07,
2460714.500000000, A.D. 2025-Feb-08 00:00:00.0000, 4.631708746521969E+08, 1.421734866685509E+08, 3.516066340925743E+07,
$$EOE